{"type": "FeatureCollection", "features": [ {"type": "Feature", "properties": {"norad_id": 37834, "name": "INTELSAT 18 (IS-18)", "group": "intelsat", "lat": -0.01607743872087291, "lon": 162.47093901101817, "alt_km": 35790.323902428216, "timestamp": "2025-12-21T16:47:54.396689+00:00", "meta": {"OBJECT_NAME": "INTELSAT 18 (IS-18)", "OBJECT_ID": "2011-056A", "EPOCH": "2025-12-21T08:06:38.568096", "MEAN_MOTION": 1.00272475, "ECCENTRICITY": 0.0001716, "INCLINATION": 0.0314, "RA_OF_ASC_NODE": 281.2642, "ARG_OF_PERICENTER": 9.2626, "MEAN_ANOMALY": 101.2942, "EPHEMERIS_TYPE": 0, "CLASSIFICATION_TYPE": "U", "NORAD_CAT_ID": 37834, "ELEMENT_SET_NO": 999, "REV_AT_EPOCH": 5202, "BSTAR": 0, "MEAN_MOTION_DOT": 7.6e-07, "MEAN_MOTION_DDOT": 0}, "tle": {"line1": "1 37834U 11056A   25355.33794639  .00000076  00000+0  00000+0 0  9993", "line2": "2 37834   0.0314 281.2642 0001716   9.2626 101.2942  1.00272475 52026"}}, "geometry": {"type": "Point", "coordinates": [162.47093901101817, -0.01607743872087291]}}, {"type": "Feature", "properties": {"norad_id": 38098, "name": "INTELSAT 22 (IS-22)", "group": "intelsat", "lat": 0.017581972156741402, "lon": 54.58726519003676, "alt_km": 35791.97374971888, "timestamp": "2025-12-21T16:47:54.396701+00:00", "meta": {"OBJECT_NAME": "INTELSAT 22 (IS-22)", "OBJECT_ID": "2012-011A", "EPOCH": "2025-12-21T08:24:19.414080", "MEAN_MOTION": 1.00270608, "ECCENTRICITY": 0.0001803, "INCLINATION": 0.016, "RA_OF_ASC_NODE": 43.4042, "ARG_OF_PERICENTER": 234.4784, "MEAN_ANOMALY": 10.4596, "EPHEMERIS_TYPE": 0, "CLASSIFICATION_TYPE": "U", "NORAD_CAT_ID": 38098, "ELEMENT_SET_NO": 999, "REV_AT_EPOCH": 540, "BSTAR": 0, "MEAN_MOTION_DOT": -3.6e-07, "MEAN_MOTION_DDOT": 0}, "tle": {"line1": "1 38098U 12011A   25355.35022470 -.00000036  00000+0  00000+0 0  9994", "line2": "2 38098   0.0160  43.4042 0001803 234.4784  10.4596  1.00270608  5406"}}, "geometry": {"type": "Point", "coordinates": [54.58726519003676, 0.017581972156741402]}}, {"type": "Feature", "properties": {"norad_id": 38356, "name": "INTELSAT 19 (IS-19)", "group": "intelsat", "lat": 0.02579238141403026, "lon": 148.4545546279516, "alt_km": 35791.83643787042, "timestamp": "2025-12-21T16:47:54.396712+00:00", "meta": {"OBJECT_NAME": "INTELSAT 19 (IS-19)", "OBJECT_ID": "2012-030A", "EPOCH": "2025-12-21T10:33:44.519040", "MEAN_MOTION": 1.00271325, "ECCENTRICITY": 0.000275, "INCLINATION": 0.0104, "RA_OF_ASC_NODE": 26.3516, "ARG_OF_PERICENTER": 240.9584, "MEAN_ANOMALY": 147.3836, "EPHEMERIS_TYPE": 0, "CLASSIFICATION_TYPE": "U", "NORAD_CAT_ID": 38356, "ELEMENT_SET_NO": 999, "REV_AT_EPOCH": 4866, "BSTAR": 0, "MEAN_MOTION_DOT": -3.4e-07, "MEAN_MOTION_DDOT": 0}, "tle": {"line1": "1 38356U 12030A   25355.44009860 -.00000034  00000+0  00000+0 0  9998", "line2": "2 38356   0.0104  26.3516 0002750 240.9584 147.3836  1.00271325 48668"}}, "geometry": {"type": "Point", "coordinates": [148.4545546279516, 0.02579238141403026]}}, {"type": "Feature", "properties": {"norad_id": 38740, "name": "INTELSAT 20 (IS-20)", "group": "intelsat", "lat": 0.010285845276948294, "lon": 50.94117163201437, "alt_km": 35795.87848922619, "timestamp": "2025-12-21T16:47:54.396724+00:00", "meta": {"OBJECT_NAME": "INTELSAT 20 (IS-20)", "OBJECT_ID": "2012-043A", "EPOCH": "2025-12-21T11:48:40.718880", "MEAN_MOTION": 1.00271315, "ECCENTRICITY": 0.0003473, "INCLINATION": 0.0082, "RA_OF_ASC_NODE": 53.6994, "ARG_OF_PERICENTER": 128.8194, "MEAN_ANOMALY": 153.4487, "EPHEMERIS_TYPE": 0, "CLASSIFICATION_TYPE": "U", "NORAD_CAT_ID": 38740, "ELEMENT_SET_NO": 999, "REV_AT_EPOCH": 4896, "BSTAR": 0, "MEAN_MOTION_DOT": -2e-08, "MEAN_MOTION_DDOT": 0}, "tle": {"line1": "1 38740U 12043A   25355.49213795 -.00000002  00000+0  00000+0 0  9993", "line2": "2 38740   0.0082  53.6994 0003473 128.8194 153.4487  1.00271315 48969"}}, "geometry": {"type": "Point", "coordinates": [50.94117163201437, 0.010285845276948294]}}, {"type": "Feature", "properties": {"norad_id": 38749, "name": "INTELSAT 21 (IS-21)", "group": "intelsat", "lat": -0.0200965066264048, "lon": -75.50726298656217, "alt_km": 35780.12483952633, "timestamp": "2025-12-21T16:47:54.396736+00:00", "meta": {"OBJECT_NAME": "INTELSAT 21 (IS-21)", "OBJECT_ID": "2012-045A", "EPOCH": "2025-12-21T11:12:36.672768", "MEAN_MOTION": 1.0027192, "ECCENTRICITY": 0.0001525, "INCLINATION": 0.0228, "RA_OF_ASC_NODE": 292.4325, "ARG_OF_PERICENTER": 329.0019, "MEAN_ANOMALY": 299.0063, "EPHEMERIS_TYPE": 0, "CLASSIFICATION_TYPE": "U", "NORAD_CAT_ID": 38749, "ELEMENT_SET_NO": 999, "REV_AT_EPOCH": 4874, "BSTAR": 0, "MEAN_MOTION_DOT": -2.62e-06, "MEAN_MOTION_DDOT": 0}, "tle": {"line1": "1 38749U 12045A   25355.46709112 -.00000262  00000+0  00000+0 0  9992", "line2": "2 38749   0.0228 292.4325 0001525 329.0019 299.0063  1.00271920 48743"}}, "geometry": {"type": "Point", "coordinates": [-75.50726298656217, -0.0200965066264048]}}, {"type": "Feature", "properties": {"norad_id": 38867, "name": "INTELSAT 23 (IS-23)", "group": "intelsat", "lat": -0.02846091705240591, "lon": -70.49667924858102, "alt_km": 35784.087224573304, "timestamp": "2025-12-21T16:47:54.396747+00:00", "meta": {"OBJECT_NAME": "INTELSAT 23 (IS-23)", "OBJECT_ID": "2012-057A", "EPOCH": "2025-12-21T11:13:59.042208", "MEAN_MOTION": 1.00269242, "ECCENTRICITY": 6.59e-05, "INCLINATION": 0.0169, "RA_OF_ASC_NODE": 64.9752, "ARG_OF_PERICENTER": 235.2005, "MEAN_ANOMALY": 265.6301, "EPHEMERIS_TYPE": 0, "CLASSIFICATION_TYPE": "U", "NORAD_CAT_ID": 38867, "ELEMENT_SET_NO": 999, "REV_AT_EPOCH": 4817, "BSTAR": 0, "MEAN_MOTION_DOT": -2.62e-06, "MEAN_MOTION_DDOT": 0}, "tle": {"line1": "1 38867U 12057A   25355.46804447 -.00000262  00000+0  00000+0 0  9993", "line2": "2 38867   0.0169  64.9752 0000659 235.2005 265.6301  1.00269242 48179"}}, "geometry": {"type": "Point", "coordinates": [-70.49667924858102, -0.02846091705240591]}}, {"type": "Feature", "properties": {"norad_id": 39360, "name": "FM-6", "group": "intelsat", "lat": -0.006035752153023213, "lon": -133.64551841792658, "alt_km": 35776.7705477667, "timestamp": "2025-12-21T16:47:54.396758+00:00", "meta": {"OBJECT_NAME": "FM-6", "OBJECT_ID": "2013-058A", "EPOCH": "2025-12-21T10:49:59.562048", "MEAN_MOTION": 1.00273303, "ECCENTRICITY": 0.0003048, "INCLINATION": 0.0117, "RA_OF_ASC_NODE": 65.8213, "ARG_OF_PERICENTER": 114.5077, "MEAN_ANOMALY": 316.2838, "EPHEMERIS_TYPE": 0, "CLASSIFICATION_TYPE": "U", "NORAD_CAT_ID": 39360, "ELEMENT_SET_NO": 999, "REV_AT_EPOCH": 4429, "BSTAR": 0, "MEAN_MOTION_DOT": 5e-08, "MEAN_MOTION_DDOT": 0}, "tle": {"line1": "1 39360U 13058A   25355.45138382  .00000005  00000+0  00000+0 0  9995", "line2": "2 39360   0.0117  65.8213 0003048 114.5077 316.2838  1.00273303 44296"}}, "geometry": {"type": "Point", "coordinates": [-133.64551841792658, -0.006035752153023213]}}, {"type": "Feature", "properties": {"norad_id": 40271, "name": "INTELSAT 30 (IS-30)", "group": "intelsat", "lat": -0.03275098651019999, "lon": -112.55698754209924, "alt_km": 35792.50701445685, "timestamp": "2025-12-21T16:47:54.396770+00:00", "meta": {"OBJECT_NAME": "INTELSAT 30 (IS-30)", "OBJECT_ID": "2014-062A", "EPOCH": "2025-12-21T02:28:25.779360", "MEAN_MOTION": 1.00271873, "ECCENTRICITY": 0.00016539, "INCLINATION": 0.0153, "RA_OF_ASC_NODE": 22.7027, "ARG_OF_PERICENTER": 68.3073, "MEAN_ANOMALY": 300.9758, "EPHEMERIS_TYPE": 0, "CLASSIFICATION_TYPE": "U", "NORAD_CAT_ID": 40271, "ELEMENT_SET_NO": 999, "REV_AT_EPOCH": 500, "BSTAR": 0, "MEAN_MOTION_DOT": -1.28e-06, "MEAN_MOTION_DDOT": 0}, "tle": {"line1": "1 40271U 14062A   25355.10307615 -.00000128  00000+0  00000+0 0  9990", "line2": "2 40271   0.0153  22.7027 0001653  68.3073 300.9758  1.00271873  5003"}}, "geometry": {"type": "Point", "coordinates": [-112.55698754209924, -0.03275098651019999]}}, {"type": "Feature", "properties": {"norad_id": 40333, "name": "DIRECTV 14", "group": "intelsat", "lat": -0.023669870938210037, "lon": -116.73343844906188, "alt_km": 35786.95460186904, "timestamp": "2025-12-21T16:47:54.396781+00:00", "meta": {"OBJECT_NAME": "DIRECTV 14", "OBJECT_ID": "2014-078B", "EPOCH": "2025-12-21T11:54:52.390944", "MEAN_MOTION": 1.00270511, "ECCENTRICITY": 2.6e-05, "INCLINATION": 0.0008, "RA_OF_ASC_NODE": 6.7961, "ARG_OF_PERICENTER": 119.3735, "MEAN_ANOMALY": 43.6445, "EPHEMERIS_TYPE": 0, "CLASSIFICATION_TYPE": "U", "NORAD_CAT_ID": 40333, "ELEMENT_SET_NO": 999, "REV_AT_EPOCH": 4026, "BSTAR": 0, "MEAN_MOTION_DOT": -1.03e-06, "MEAN_MOTION_DDOT": 0}, "tle": {"line1": "1 40333U 14078B   25355.49643971 -.00000103  00000+0  00000+0 0  9999", "line2": "2 40333   0.0008   6.7961 0000260 119.3735  43.6445  1.00270511 40264"}}, "geometry": {"type": "Point", "coordinates": [-116.73343844906188, -0.023669870938210037]}}, {"type": "Feature", "properties": {"norad_id": 40663, "name": "DIRECTV 15", "group": "intelsat", "lat": -0.0365742989468394, "lon": -120.3941090604793, "alt_km": 35786.93911426512, "timestamp": "2025-12-21T16:47:54.396793+00:00", "meta": {"OBJECT_NAME": "DIRECTV 15", "OBJECT_ID": "2015-026A", "EPOCH": "2025-12-21T08:19:00.875424", "MEAN_MOTION": 1.00269643, "ECCENTRICITY": 3.3e-05, "INCLINATION": 0.0248, "RA_OF_ASC_NODE": 19.5507, "ARG_OF_PERICENTER": 120.1507, "MEAN_ANOMALY": 332.3403, "EPHEMERIS_TYPE": 0, "CLASSIFICATION_TYPE": "U", "NORAD_CAT_ID": 40663, "ELEMENT_SET_NO": 999, "REV_AT_EPOCH": 3868, "BSTAR": 0, "MEAN_MOTION_DOT": 0, "MEAN_MOTION_DDOT": 0}, "tle": {"line1": "1 40663U 15026A   25355.34653791  .00000000  00000+0  00000+0 0  9999", "line2": "2 40663   0.0248  19.5507 0000330 120.1507 332.3403  1.00269643 38688"}}, "geometry": {"type": "Point", "coordinates": [-120.3941090604793, -0.0365742989468394]}}]}